BATSU-CS1 (IRAZU)       
1 43468U 98067NR  20028.95663757  .00126482  17202-4  36679-3 0  9998
2 43468  51.6296 254.2276 0003948 198.5551 161.5313 15.92735047198340
CUBERRT                 
1 43546U 98067NU  20028.93895642  .00008101  00000-0  73507-4 0  9996
2 43546  51.6356 279.8989 0002762 263.6823  96.3859 15.69047236 88154
TEMPEST-D               
1 43547U 98067NV  20028.93773536  .00003736  00000-0  50765-4 0  9994
2 43547  51.6378 300.2012 0004457 241.1523 118.9023 15.60436567 87564
RAINCUBE                
1 43548U 98067NW  20028.92271387  .00014972  00000-0  13952-3 0  9991
2 43548  51.6346 288.0216 0003527 254.3471 105.7136 15.67589697 88171
HALOSAT                 
1 43549U 98067NX  20028.75252167  .00014492  00000-0  13614-3 0  9990
2 43549  51.6362 289.1767 0003464 256.8833 103.1777 15.67420872 87702
ENDUROSAT ONE           
1 43551U 98067NZ  20028.89228987  .00020413  00000-0  16466-3 0  9999
2 43551  51.6339 282.5712 0003294 266.8466  93.2155 15.70857848 88217
EQUISAT                 
1 43552U 98067PA  20028.70577212  .00014772  00000-0  13683-3 0  9997
2 43552  51.6368 288.1547 0003925 266.3467  93.7081 15.67750853 88087
AEROCUBE 12A            
1 43556U 18046C   20028.57457858  .00001187  00000-0  53566-4 0  9999
2 43556  51.6426  62.2392 0008625 148.7447 211.4047 15.29337697 85812
AEROCUBE 12B            
1 43557U 18046D   20028.54698651  .00000683  00000-0  36337-4 0  9992
2 43557  51.6433  62.7973 0008560 148.1801 211.9698 15.29132145 85758
UITMSAT-1               
1 43589U 98067PD  20029.08609564  .00017773  00000-0  15653-3 0  9998
2 43589  51.6336 286.0706 0003128 276.5046  83.5594 15.68830849 83881
MAYA-1                  
1 43590U 98067PE  20028.88813199  .00017068  00000-0  15055-3 0  9991
2 43590  51.6336 287.0066 0003222 276.9389  83.1241 15.68827865 83780
BHUTAN-1                
1 43591U 98067PF  20029.12457537  .00018436  00000-0  16164-3 0  9992
2 43591  51.6349 285.6324 0003311 278.7881  81.2741 15.68911171 83825
SIRIUSSAT-1             
1 43595U 98067PG  20028.81298131  .00014689  00000-0  13776-3 0  9996
2 43595  51.6341 290.2633 0002233 216.7983 143.2861 15.67450659 82912
SIRIUSSAT-2             
1 43596U 98067PH  20028.92963606  .00016077  00000-0  15089-3 0  9997
2 43596  51.6351 290.3539 0002639 219.1732 140.9074 15.67346221 82929
TANUSHA-3               
1 43597U 98067PJ  20029.07427428  .00026909  00000-0  20916-3 0  9992
2 43597  51.6323 283.6908 0001865 225.0616 135.0231 15.71562688 83025
SURFSAT                 
1 43614U 18070B   20028.68304436  .00001912  00000-0  50332-4 0  9990
2 43614  93.0339  96.3701 0016592 152.7278 207.4851 15.38513394 76831
CP7 (DAVE)              
1 43615U 18070C   20028.70280973  .00001852  00000-0  48929-4 0  9995
2 43615  93.0342  96.3751 0016754 152.1801 208.0352 15.38401686 76830
ELFIN-B                 
1 43616U 18070D   20028.85231770  .00002703  00000-0  68948-4 0  9992
2 43616  93.0299  96.3482 0017337 154.4235 205.7881 15.39435847 76880
ELFIN-A                 
1 43617U 18070E   20028.89981470  .00002905  00000-0  73788-4 0  9998
2 43617  93.0355  96.7625 0016761 150.8380 209.3814 15.39567882 76890
CUBEBEL-1 (BSUSAT-1)    
1 43666U 18083E   20029.16939527  .00000720  00000-0  38699-4 0  9998
2 43666  97.5024  56.9325 0016313 125.0662 308.4241 15.17975837 69336
DEBRISSAT-2             
1 43680U 98067PR  20029.08748404  .00043619  00000-0  27859-3 0  9996
2 43680  51.6340 280.0572 0001470 210.8672 149.2241 15.75903046 91805
CICERO 10               
1 43690U 18088A   20028.88370007  .00000889  00000-0  39270-4 0  9992
2 43690  85.0401 170.9155 0017135 104.2027 256.1118 15.19997078 67400
IRVINE01                
1 43693U 18088D   20028.84563867  .00001948  00000-0  82531-4 0  9994
2 43693  85.0374 170.0303 0020036  89.4684 270.8854 15.22256621 67456
PROXIMA I               
1 43694U 18088E   20028.83853122  .00000806  00000-0  33541-4 0  9999
2 43694  85.0344 169.8300 0021508  81.8039 278.5641 15.21732933 67466
PROXIMA II              
1 43696U 18088G   20028.83702380  .00000807  00000-0  33588-4 0  9992
2 43696  85.0345 169.8332 0021549  81.7496 278.6189 15.21737006 67458
FACSAT-1                
1 43721U 18096C   20029.17645062  .00001027  00000-0  41662-4 0  9998
2 43721  97.4362 103.4423 0016196 256.8023 103.1409 15.26828076 64986
CENTAURI-2              
1 43722U 18096D   20029.17939837  .00001427  00000-0  56126-4 0  9990
2 43722  97.4369 103.6029 0016270 256.9546 102.9876 15.27228730 64989
INNOSAT-2               
1 43738U 18096V   20029.17163951  .00001911  00000-0  68861-4 0  9990
2 43738  97.4380 105.0086 0022263 266.7621  93.1072 15.29611743 65083
SIRION PATHFINDER-2     
1 43759U 18099B   20029.18000021 -.00000347  00000-0 -26297-4 0  9996
2 43759  97.7218 103.1282 0012982 294.0011  65.9851 14.95220224 62968
CORVUS-BC 4             
1 43767U 18099K   20028.80119452  .00000278  00000-0  30922-4 0  9993
2 43767  97.7202 102.3166 0010454 299.8215  60.1965 14.94659354 62897
MOVE-II                 
1 43780U 18099Y   20028.86633289  .00000422  00000-0  43555-4 0  9990
2 43780  97.7218 102.7226 0012288 306.8589  53.1504 14.95260092 62901
SPACEBEE-7              
1 43816U 18099BL  20029.16871863  .00000093  00000-0  13631-4 0  9992
2 43816  97.7235 103.3238 0011979 289.6046  70.3881 14.95577840 62521
SPACEBEE-5              
1 43817U 18099BM  20029.17207875  .00000428  00000-0  43294-4 0  9990
2 43817  97.7273 103.5776 0011778 289.0228  70.9717 14.96030058 62537
SPACEBEE-6              
1 43818U 18099BN  20029.14793444  .00000878  00000-0  83939-4 0  9999
2 43818  97.7244 103.3820 0011847 288.6052  71.3882 14.95719292 62677
SHIELDS 1               
1 43850U 18104B   20028.63844650  .00000041  00000-0  00000+0 0  9996
2 43850  85.0273 268.4237 0013431 221.6981 138.3272 15.21260613 62067
STF-1                   
1 43852U 18104D   20028.63446911  .00000041  00000-0  00000+0 0  9996
2 43852  85.0302 268.8635 0012581 239.0727 120.9316 15.20987968 62046
ZACUBE-2                
1 43907U 18111AH  20029.12056324  .00000454  00000-0  21304-4 0  9998
2 43907  97.2780 293.0115 0019917 280.3781  79.5212 15.24429357 60638
LUME 1                  
1 43908U 18111AJ  20028.75201802  .00000829  00000-0  36165-4 0  9997
2 43908  97.2780 292.7428 0019771 281.7762  78.1258 15.24748685 60581
AOBA VELOX-IV           
1 43940U 19003J   20029.21347375  .00001212  00000-0  51783-4 0  9992
2 43940  97.2491  85.1914 0024196   3.8438  67.1110 15.24497794 57280
CATSAT-2                
1 44029U 98067PV  20028.65947770  .00011066  00000-0  13519-3 0  9992
2 44029  51.6392 307.3806 0003354 267.8517  92.2092 15.60985731 56500
DELPHINI                
1 44030U 98067PW  20028.93609171  .00010993  00000-0  13189-3 0  9996
2 44030  51.6364 305.4213 0003095 262.2386  97.8256 15.61470344 56522
UNITE                   
1 44031U 98067PX  20028.18713008  .00006597  00000-0  90446-4 0  9996
2 44031  51.6384 312.4497 0002312 255.6283 104.4453 15.58712353 56361
TECHEDSAT 8             
1 44032U 98067PY  20028.74920045  .00062592  00000-0  40081-3 0  9996
2 44032  51.6313 292.8614 0001857 197.5967 162.4969 15.75689967 56653
CATSAT-1                
1 44033U 98067PZ  20028.78737343  .00012186  00000-0  14821-3 0  9995
2 44033  51.6391 306.7383 0003223 267.1585  92.9040 15.60989121 56439
RAAVANA-1               
1 44329U 98067QE  20029.16819822  .00006895  00000-0  10722-3 0  9995
2 44329  51.6406 316.0295 0006428 190.6831 169.4025 15.55164451 35158
UGUISU                  
1 44330U 98067QF  20028.85327874  .00006638  00000-0  10372-3 0  9999
2 44330  51.6406 317.6742 0006450 188.3247 171.7638 15.55103191 35086
NEPALISAT-1             
1 44331U 98067QG  20029.16324925  .00007015  00000-0  10884-3 0  9997
2 44331  51.6406 315.9968 0006435 192.1397 167.9440 15.55196823 35149
SPOOQY-1                
1 44332U 98067QH  20028.51839907  .00006566  00000-0  10248-3 0  9991
2 44332  51.6409 319.1866 0005315 190.7913 169.2965 15.55160386 35007
SPACEBEE-9              
1 44370U 19037F   20028.48031379  .00006029  00000-0  14961-3 0  9996
2 44370  45.0142 182.7421 0012521  74.8645 285.3619 15.41277183 32835
SPACEBEE-8              
1 44371U 19037G   20028.78624967  .00010608  00000-0  23772-3 0  9999
2 44371  45.0161 179.1237 0010369  80.1795 280.0259 15.43621255 32899
IOD-1 GEMS              
1 44385U 98067QK  20028.52115851  .00010071  00000-0  14873-3 0  9999
2 44385  51.6417 319.2349 0003480 148.6434 211.4765 15.56001590 32515
MOVE-IIB                
1 44398U 19038N   20028.87061070  .00000751  00000-0  47282-4 0  9990
2 44398  97.5187 352.0850 0023836 251.0174 108.8474 15.12007234 31339
SONATE                  
1 44400U 19038Q   20028.87879272  .00000268  00000-0  19438-4 0  9990
2 44400  97.5211 352.1114 0023805 248.9524 110.9161 15.11813844 31333
LUCKY-7                 
1 44406U 19038W   20028.85122682  .00000476  00000-0  31374-4 0  9994
2 44406  97.5208 352.1428 0023215 248.8179 111.0571 15.12040319 31329
BEESAT 9                
1 44412U 19038AC  20028.85445801  .00000627  00000-0  40106-4 0  9993
2 44412  97.5203 352.1301 0021257 255.0476 104.8401 15.12058985 31022
JAISAT-1                
1 44419U 19038F   20028.85343173  .00000601  00000-0  38129-4 0  9993
2 44419  97.5205 352.2873 0020127 254.5109 105.3899 15.12541566 31342
SWIATOWID               
1 44426U 98067QL  20029.18706188  .00011403  00000-0  16601-3 0  9998
2 44426  51.6448 315.8765 0004396 140.2814   1.3684 15.56239636 32639
KRAKSAT                 
1 44427U 98067QM  20028.84423754  .00005376  00000-0  89057-4 0  9994
2 44427  51.6423 319.1353 0004200 143.2945 216.8333 15.53919088 32609
VCC A                   
1 44428U 98067QN  20029.17385928  .00006856  00000-0  10866-3 0  9997
2 44428  51.6420 316.8401 0003281 159.0070 201.1056 15.54652661 32664
